{"type": "FeatureCollection", "features": [ {"type": "Feature", "properties": {"norad_id": 41556, "name": "ZIYUAN 3-02 (ZY 3-02)", "group": "resource", "lat": -35.709584772598454, "lon": 78.72599575853705, "alt_km": 513.0066339016412, "timestamp": "2025-12-25T09:48:51.943610+00:00", "meta": {"OBJECT_NAME": "ZIYUAN 3-02 (ZY 3-02)", "OBJECT_ID": "2016-033A", "EPOCH": "2025-12-25T05:14:12.715008", "MEAN_MOTION": 15.21230269, "ECCENTRICITY": 0.0011443, "INCLINATION": 97.4024, "RA_OF_ASC_NODE": 73.1761, "ARG_OF_PERICENTER": 199.6653, "MEAN_ANOMALY": 160.4143, "EPHEMERIS_TYPE": 0, "CLASSIFICATION_TYPE": "U", "NORAD_CAT_ID": 41556, "ELEMENT_SET_NO": 999, "REV_AT_EPOCH": 53153, "BSTAR": 0.00037784, "MEAN_MOTION_DOT": 8.383e-05, "MEAN_MOTION_DDOT": 0}, "tle": {"line1": "1 41556U 16033A   25359.21820272  .00008383  00000+0  37784-3 0  9995", "line2": "2 41556  97.4024  73.1761 0011443 199.6653 160.4143 15.21230269531533"}}, "geometry": {"type": "Point", "coordinates": [78.72599575853705, -35.709584772598454]}}, {"type": "Feature", "properties": {"norad_id": 41599, "name": "CARTOSAT-2C", "group": "resource", "lat": 5.380374240481966, "lon": -122.76407399239204, "alt_km": 516.9917519598439, "timestamp": "2025-12-25T09:48:51.943621+00:00", "meta": {"OBJECT_NAME": "CARTOSAT-2C", "OBJECT_ID": "2016-040A", "EPOCH": "2025-12-25T04:18:25.727616", "MEAN_MOTION": 15.19227099, "ECCENTRICITY": 0.001064, "INCLINATION": 97.4743, "RA_OF_ASC_NODE": 56.3004, "ARG_OF_PERICENTER": 23.3076, "MEAN_ANOMALY": 336.8639, "EPHEMERIS_TYPE": 0, "CLASSIFICATION_TYPE": "U", "NORAD_CAT_ID": 41599, "ELEMENT_SET_NO": 999, "REV_AT_EPOCH": 52729, "BSTAR": 0.00024183, "MEAN_MOTION_DOT": 5.032e-05, "MEAN_MOTION_DDOT": 0}, "tle": {"line1": "1 41599U 16040A   25359.17946444  .00005032  00000+0  24183-3 0  9992", "line2": "2 41599  97.4743  56.3004 0010640  23.3076 336.8639 15.19227099527292"}}, "geometry": {"type": "Point", "coordinates": [-122.76407399239204, 5.380374240481966]}}, {"type": "Feature", "properties": {"norad_id": 41601, "name": "SKYSAT-C1", "group": "resource", "lat": 55.8239085789459, "lon": -133.89554329880903, "alt_km": 462.75863226710317, "timestamp": "2025-12-25T09:48:51.943631+00:00", "meta": {"OBJECT_NAME": "SKYSAT-C1", "OBJECT_ID": "2016-040C", "EPOCH": "2025-12-25T01:26:37.321152", "MEAN_MOTION": 15.32807797, "ECCENTRICITY": 9.31e-05, "INCLINATION": 96.9806, "RA_OF_ASC_NODE": 35.379, "ARG_OF_PERICENTER": 322.4418, "MEAN_ANOMALY": 37.676, "EPHEMERIS_TYPE": 0, "CLASSIFICATION_TYPE": "U", "NORAD_CAT_ID": 41601, "ELEMENT_SET_NO": 999, "REV_AT_EPOCH": 53116, "BSTAR": 0.00032373, "MEAN_MOTION_DOT": 0.00010188, "MEAN_MOTION_DDOT": 0}, "tle": {"line1": "1 41601U 16040C   25359.06015418  .00010188  00000+0  32373-3 0  9990", "line2": "2 41601  96.9806  35.3790 0000931 322.4418  37.6760 15.32807797531160"}}, "geometry": {"type": "Point", "coordinates": [-133.89554329880903, 55.8239085789459]}}, {"type": "Feature", "properties": {"norad_id": 41603, "name": "LAPAN-A3", "group": "resource", "lat": -36.99020095319184, "lon": 171.08372231692084, "alt_km": 474.72266461029267, "timestamp": "2025-12-25T09:48:51.943641+00:00", "meta": {"OBJECT_NAME": "LAPAN-A3", "OBJECT_ID": "2016-040E", "EPOCH": "2025-12-25T05:43:55.749216", "MEAN_MOTION": 15.31653186, "ECCENTRICITY": 0.0008666, "INCLINATION": 97.1435, "RA_OF_ASC_NODE": 356.3408, "ARG_OF_PERICENTER": 281.8392, "MEAN_ANOMALY": 78.1878, "EPHEMERIS_TYPE": 0, "CLASSIFICATION_TYPE": "U", "NORAD_CAT_ID": 41603, "ELEMENT_SET_NO": 999, "REV_AT_EPOCH": 52817, "BSTAR": 0.00016309, "MEAN_MOTION_DOT": 4.915e-05, "MEAN_MOTION_DDOT": 0}, "tle": {"line1": "1 41603U 16040E   25359.23883969  .00004915  00000+0  16309-3 0  9997", "line2": "2 41603  97.1435 356.3408 0008666 281.8392  78.1878 15.31653186528174"}}, "geometry": {"type": "Point", "coordinates": [171.08372231692084, -36.99020095319184]}}, {"type": "Feature", "properties": {"norad_id": 41604, "name": "BIROS", "group": "resource", "lat": -78.79636863171767, "lon": 70.16941504001123, "alt_km": 298.47497171496434, "timestamp": "2025-12-25T09:48:51.943652+00:00", "meta": {"OBJECT_NAME": "BIROS", "OBJECT_ID": "2016-040F", "EPOCH": "2025-12-25T01:07:09.917184", "MEAN_MOTION": 15.94683958, "ECCENTRICITY": 0.0003905, "INCLINATION": 97.0657, "RA_OF_ASC_NODE": 31.0163, "ARG_OF_PERICENTER": 124.4663, "MEAN_ANOMALY": 235.6982, "EPHEMERIS_TYPE": 0, "CLASSIFICATION_TYPE": "U", "NORAD_CAT_ID": 41604, "ELEMENT_SET_NO": 999, "REV_AT_EPOCH": 53068, "BSTAR": 0.00061517, "MEAN_MOTION_DOT": 0.00232464, "MEAN_MOTION_DDOT": 2.2718e-05}, "tle": {"line1": "1 41604U 16040F   25359.04664256  .00232464  22718-4  61517-3 0  9991", "line2": "2 41604  97.0657  31.0163 0003905 124.4663 235.6982 15.94683958530683"}}, "geometry": {"type": "Point", "coordinates": [70.16941504001123, -78.79636863171767]}}, {"type": "Feature", "properties": {"norad_id": 41727, "name": "GAOFEN-3", "group": "resource", "lat": -63.69176072908288, "lon": 167.4041667779186, "alt_km": 759.138611224258, "timestamp": "2025-12-25T09:48:51.943662+00:00", "meta": {"OBJECT_NAME": "GAOFEN-3", "OBJECT_ID": "2016-049A", "EPOCH": "2025-12-25T05:21:07.367616", "MEAN_MOTION": 14.42216775, "ECCENTRICITY": 0.0001093, "INCLINATION": 98.4036, "RA_OF_ASC_NODE": 4.6185, "ARG_OF_PERICENTER": 56.323, "MEAN_ANOMALY": 303.8064, "EPHEMERIS_TYPE": 0, "CLASSIFICATION_TYPE": "U", "NORAD_CAT_ID": 41727, "ELEMENT_SET_NO": 999, "REV_AT_EPOCH": 49357, "BSTAR": 5.9258e-05, "MEAN_MOTION_DOT": 1.52e-06, "MEAN_MOTION_DDOT": 0}, "tle": {"line1": "1 41727U 16049A   25359.22300194  .00000152  00000+0  59258-4 0  9996", "line2": "2 41727  98.4036   4.6185 0001093  56.3230 303.8064 14.42216775493570"}}, "geometry": {"type": "Point", "coordinates": [167.4041667779186, -63.69176072908288]}}, {"type": "Feature", "properties": {"norad_id": 41771, "name": "SKYSAT-C4", "group": "resource", "lat": 38.08144505632766, "lon": -150.5444170643649, "alt_km": 434.06637736862103, "timestamp": "2025-12-25T09:48:51.943672+00:00", "meta": {"OBJECT_NAME": "SKYSAT-C4", "OBJECT_ID": "2016-058B", "EPOCH": "2025-12-25T02:58:33.098016", "MEAN_MOTION": 15.42597663, "ECCENTRICITY": 0.0002556, "INCLINATION": 96.9362, "RA_OF_ASC_NODE": 23.7104, "ARG_OF_PERICENTER": 123.3164, "MEAN_ANOMALY": 236.833, "EPHEMERIS_TYPE": 0, "CLASSIFICATION_TYPE": "U", "NORAD_CAT_ID": 41771, "ELEMENT_SET_NO": 999, "REV_AT_EPOCH": 51858, "BSTAR": 0.00036071, "MEAN_MOTION_DOT": 0.00015617, "MEAN_MOTION_DDOT": 0}, "tle": {"line1": "1 41771U 16058B   25359.12399419  .00015617  00000+0  36071-3 0  9991", "line2": "2 41771  96.9362  23.7104 0002556 123.3164 236.8330 15.42597663518582"}}, "geometry": {"type": "Point", "coordinates": [-150.5444170643649, 38.08144505632766]}}, {"type": "Feature", "properties": {"norad_id": 41772, "name": "SKYSAT-C5", "group": "resource", "lat": 35.9160009217976, "lon": 37.469874282906396, "alt_km": 463.84980342857943, "timestamp": "2025-12-25T09:48:51.943682+00:00", "meta": {"OBJECT_NAME": "SKYSAT-C5", "OBJECT_ID": "2016-058C", "EPOCH": "2025-12-25T01:49:46.551936", "MEAN_MOTION": 15.3409486, "ECCENTRICITY": 0.0003967, "INCLINATION": 97.0737, "RA_OF_ASC_NODE": 42.3114, "ARG_OF_PERICENTER": 231.5105, "MEAN_ANOMALY": 128.5783, "EPHEMERIS_TYPE": 0, "CLASSIFICATION_TYPE": "U", "NORAD_CAT_ID": 41772, "ELEMENT_SET_NO": 999, "REV_AT_EPOCH": 51705, "BSTAR": 0.00031271, "MEAN_MOTION_DOT": 0.00010248, "MEAN_MOTION_DDOT": 0}, "tle": {"line1": "1 41772U 16058C   25359.07623324  .00010248  00000+0  31271-3 0  9993", "line2": "2 41772  97.0737  42.3114 0003967 231.5105 128.5783 15.34094860517055"}}, "geometry": {"type": "Point", "coordinates": [37.469874282906396, 35.9160009217976]}}, {"type": "Feature", "properties": {"norad_id": 41773, "name": "SKYSAT-C2", "group": "resource", "lat": -17.8516425481499, "lon": -158.88010490905629, "alt_km": 460.2329372581544, "timestamp": "2025-12-25T09:48:51.943692+00:00", "meta": {"OBJECT_NAME": "SKYSAT-C2", "OBJECT_ID": "2016-058D", "EPOCH": "2025-12-25T01:08:47.943168", "MEAN_MOTION": 15.37542437, "ECCENTRICITY": 0.0002785, "INCLINATION": 97.0351, "RA_OF_ASC_NODE": 23.0533, "ARG_OF_PERICENTER": 357.0421, "MEAN_ANOMALY": 3.0807, "EPHEMERIS_TYPE": 0, "CLASSIFICATION_TYPE": "U", "NORAD_CAT_ID": 41773, "ELEMENT_SET_NO": 999, "REV_AT_EPOCH": 51825, "BSTAR": 0.00032233, "MEAN_MOTION_DOT": 0.00011801, "MEAN_MOTION_DDOT": 0}, "tle": {"line1": "1 41773U 16058D   25359.04777712  .00011801  00000+0  32233-3 0  9997", "line2": "2 41773  97.0351  23.0533 0002785 357.0421   3.0807 15.37542437518259"}}, "geometry": {"type": "Point", "coordinates": [-158.88010490905629, -17.8516425481499]}}, {"type": "Feature", "properties": {"norad_id": 41774, "name": "SKYSAT-C3", "group": "resource", "lat": -5.522014806451692, "lon": 33.24035977989796, "alt_km": 436.1480709133457, "timestamp": "2025-12-25T09:48:51.943701+00:00", "meta": {"OBJECT_NAME": "SKYSAT-C3", "OBJECT_ID": "2016-058E", "EPOCH": "2025-12-25T00:30:39.323808", "MEAN_MOTION": 15.44829659, "ECCENTRICITY": 0.0002111, "INCLINATION": 96.9281, "RA_OF_ASC_NODE": 32.197, "ARG_OF_PERICENTER": 105.7849, "MEAN_ANOMALY": 254.3634, "EPHEMERIS_TYPE": 0, "CLASSIFICATION_TYPE": "U", "NORAD_CAT_ID": 41774, "ELEMENT_SET_NO": 999, "REV_AT_EPOCH": 51915, "BSTAR": 0.00043162, "MEAN_MOTION_DOT": 0.00020176, "MEAN_MOTION_DDOT": 0}, "tle": {"line1": "1 41774U 16058E   25359.02128847  .00020176  00000+0  43162-3 0  9993", "line2": "2 41774  96.9281  32.1970 0002111 105.7849 254.3634 15.44829659519152"}}, "geometry": {"type": "Point", "coordinates": [33.24035977989796, -5.522014806451692]}}]}